[{"OBJECT_NAME":"ONEWEB-0266","OBJECT_ID":"2021-060T","EPOCH":"2026-03-09T21:03:49.611456","MEAN_MOTION":13.16595868,"ECCENTRICITY":0.00016314,"INCLINATION":87.9006,"RA_OF_ASC_NODE":248.5264,"ARG_OF_PERICENTER":91.3621,"MEAN_ANOMALY":268.7697,"EPHEMERIS_TYPE":0,"CLASSIFICATION_TYPE":"U","NORAD_CAT_ID":48984,"ELEMENT_SET_NO":999,"REV_AT_EPOCH":22651,"BSTAR":-5.6105331e-5,"MEAN_MOTION_DOT":-9.0e-8,"MEAN_MOTION_DDOT":0},{"OBJECT_NAME":"FENGYUN 1C DEB","OBJECT_ID":"1999-025Y","EPOCH":"2026-03-09T06:45:33.885216","MEAN_MOTION":12.9156266,"ECCENTRICITY":0.0607226,"INCLINATION":99.1709,"RA_OF_ASC_NODE":349.0528,"ARG_OF_PERICENTER":173.3538,"MEAN_ANOMALY":341.1407,"EPHEMERIS_TYPE":0,"CLASSIFICATION_TYPE":"U","NORAD_CAT_ID":29734,"ELEMENT_SET_NO":999,"REV_AT_EPOCH":89665,"BSTAR":0.0020197412,"MEAN_MOTION_DOT":1.203e-5,"MEAN_MOTION_DDOT":0}]
